[
    {
        "Altitude(m)": 607895.7938274472,
        "Argument of Periapsis(deg)": 0.0,
        "Eccentricity": 0.0,
        "Inclination(deg)": 60.0,
        "Latitude(deg)": 40.998275783614595,
        "Longitude(deg)": -34.91141898706531,
        "Mean Anomaly(deg)": -229.09089999999998,
        "RAAN(deg)": 275.0,
        "Satellite Name": "Test1 1218",
        "Satellite Number": 1218,
        "Semi-Major Axis(m)": 6980739.136638005,
        "Time(s)": 0
    },
    {
        "Altitude(m)": 607795.1069683828,
        "Argument of Periapsis(deg)": 0.00010418945913296404,
        "Eccentricity": 0.0,
        "Inclination(deg)": 60.0,
        "Latitude(deg)": 40.53060068697098,
        "Longitude(deg)": -34.41482456219846,
        "Mean Anomaly(deg)": -228.4707938545382,
        "RAAN(deg)": 274.9995799508602,
        "Satellite Name": "Test1 1218",
        "Satellite Number": 1218,
        "Semi-Major Axis(m)": 6980739.136638005,
        "Time(s)": 10
    },
    {
        "Altitude(m)": 607694.595662672,
        "Argument of Periapsis(deg)": 0.0002083789182659281,
        "Eccentricity": 0.0,
        "Inclination(deg)": 60.0,
        "Latitude(deg)": 40.060415634368525,
        "Longitude(deg)": -33.92567098804826,
        "Mean Anomaly(deg)": -227.85068770907634,
        "RAAN(deg)": 274.9991599017205,
        "Satellite Name": "Test1 1218",
        "Satellite Number": 1218,
        "Semi-Major Axis(m)": 6980739.136638005,
        "Time(s)": 20
    },
    {
        "Altitude(m)": 607594.3236089285,
        "Argument of Periapsis(deg)": 0.00031256837739889213,
        "Eccentricity": 0.0,
        "Inclination(deg)": 60.0,
        "Latitude(deg)": 39.5877941995262,
        "Longitude(deg)": -33.4437726599305,
        "Mean Anomaly(deg)": -227.23058156361452,
        "RAAN(deg)": 274.9987398525808,
        "Satellite Name": "Test1 1218",
        "Satellite Number": 1218,
        "Semi-Major Axis(m)": 6980739.136638005,
        "Time(s)": 30
    },
    {
        "Altitude(m)": 607494.3546061077,
        "Argument of Periapsis(deg)": 0.0004167578365318562,
        "Eccentricity": 0.0,
        "Inclination(deg)": 60.0,
        "Latitude(deg)": 39.11280771601312,
        "Longitude(deg)": -32.96894701302341,
        "Mean Anomaly(deg)": -226.61047541815267,
        "RAAN(deg)": 274.998319803441,
        "Satellite Name": "Test1 1218",
        "Satellite Number": 1218,
        "Semi-Major Axis(m)": 6980739.136638005,
        "Time(s)": 40
    },
    {
        "Altitude(m)": 607394.7525216244,
        "Argument of Periapsis(deg)": 0.0005209472956648203,
        "Eccentricity": 0.0,
        "Inclination(deg)": 60.0,
        "Latitude(deg)": 38.635525350606926,
        "Longitude(deg)": -32.50101554281534,
        "Mean Anomaly(deg)": -225.99036927269083,
        "RAAN(deg)": 274.9978997543013,
        "Satellite Name": "Test1 1218",
        "Satellite Number": 1218,
        "Semi-Major Axis(m)": 6980739.136638005,
        "Time(s)": 50
    },
    {
        "Altitude(m)": 607295.5812593453,
        "Argument of Periapsis(deg)": 0.0006251367547977843,
        "Eccentricity": 0.0,
        "Inclination(deg)": 60.0,
        "Latitude(deg)": 38.15601417511421,
        "Longitude(deg)": -32.03980330186315,
        "Mean Anomaly(deg)": -225.37026312722898,
        "RAAN(deg)": 274.99747970516154,
        "Satellite Name": "Test1 1218",
        "Satellite Number": 1218,
        "Semi-Major Axis(m)": 6980739.136638005,
        "Time(s)": 60
    },
    {
        "Altitude(m)": 607196.9047275333,
        "Argument of Periapsis(deg)": 0.0007293262139307483,
        "Eccentricity": 0.0,
        "Inclination(deg)": 60.0,
        "Latitude(deg)": 37.67433923658367,
        "Longitude(deg)": -31.585138386865808,
        "Mean Anomaly(deg)": -224.7501569817672,
        "RAAN(deg)": 274.9970596560218,
        "Satellite Name": "Test1 1218",
        "Satellite Number": 1218,
        "Semi-Major Axis(m)": 6980739.136638005,
        "Time(s)": 70
    },
    {
        "Altitude(m)": 607098.7868067122,
        "Argument of Periapsis(deg)": 0.0008335156730637124,
        "Eccentricity": 0.0,
        "Inclination(deg)": 60.0,
        "Latitude(deg)": 37.190563625856285,
        "Longitude(deg)": -31.13685292997096,
        "Mean Anomaly(deg)": -224.13005083630534,
        "RAAN(deg)": 274.99663960688207,
        "Satellite Name": "Test1 1218",
        "Satellite Number": 1218,
        "Semi-Major Axis(m)": 6980739.136638005,
        "Time(s)": 80
    },
    {
        "Altitude(m)": 607001.291317531,
        "Argument of Periapsis(deg)": 0.0009377051321966765,
        "Eccentricity": 0.0,
        "Inclination(deg)": 60.0,
        "Latitude(deg)": 36.704748544417946,
        "Longitude(deg)": -30.694782569532585,
        "Mean Anomaly(deg)": -223.50994469084353,
        "RAAN(deg)": 274.9962195577423,
        "Satellite Name": "Test1 1218",
        "Satellite Number": 1218,
        "Semi-Major Axis(m)": 6980739.136638005,
        "Time(s)": 90
    },
    {
        "Altitude(m)": 606904.4819885542,
        "Argument of Periapsis(deg)": 0.0010418945913296407,
        "Eccentricity": 0.0,
        "Inclination(deg)": 60.0,
        "Latitude(deg)": 36.21695336952395,
        "Longitude(deg)": -30.258765914073027,
        "Mean Anomaly(deg)": -222.88983854538174,
        "RAAN(deg)": 274.99579950860254,
        "Satellite Name": "Test1 1218",
        "Satellite Number": 1218,
        "Semi-Major Axis(m)": 6980739.136638005,
        "Time(s)": 100
    },
    {
        "Altitude(m)": 606808.4224240868,
        "Argument of Periapsis(deg)": 0.0011460840504626045,
        "Eccentricity": 0.0,
        "Inclination(deg)": 60.0,
        "Latitude(deg)": 35.72723571757674,
        "Longitude(deg)": -29.828645513132315,
        "Mean Anomaly(deg)": -222.2697323999199,
        "RAAN(deg)": 274.99537945946287,
        "Satellite Name": "Test1 1218",
        "Satellite Number": 1218,
        "Semi-Major Axis(m)": 6980739.136638005,
        "Time(s)": 110
    },
    {
        "Altitude(m)": 606713.1760719755,
        "Argument of Periapsis(deg)": 0.0012502735095955685,
        "Eccentricity": 0.0,
        "Inclination(deg)": 60.0,
        "Latitude(deg)": 35.23565150575203,
        "Longitude(deg)": -29.40426730999952,
        "Mean Anomaly(deg)": -221.64962625445807,
        "RAAN(deg)": 274.9949594103231,
        "Satellite Name": "Test1 1218",
        "Satellite Number": 1218,
        "Semi-Major Axis(m)": 6980739.136638005,
        "Time(s)": 120
    },
    {
        "Altitude(m)": 606618.8061914463,
        "Argument of Periapsis(deg)": 0.0013544629687285324,
        "Eccentricity": 0.0,
        "Inclination(deg)": 60.0,
        "Latitude(deg)": 34.7422550118723,
        "Longitude(deg)": -28.98548008987463,
        "Mean Anomaly(deg)": -221.0295201089962,
        "RAAN(deg)": 274.99453936118334,
        "Satellite Name": "Test1 1218",
        "Satellite Number": 1218,
        "Semi-Major Axis(m)": 6980739.136638005,
        "Time(s)": 130
    },
    {
        "Altitude(m)": 606525.3758209726,
        "Argument of Periapsis(deg)": 0.0014586524278614966,
        "Eccentricity": 0.0,
        "Inclination(deg)": 60.0,
        "Latitude(deg)": 34.24709893253137,
        "Longitude(deg)": -28.572136436948767,
        "Mean Anomaly(deg)": -220.40941396353435,
        "RAAN(deg)": 274.9941193120436,
        "Satellite Name": "Test1 1218",
        "Satellite Number": 1218,
        "Semi-Major Axis(m)": 6980739.136638005,
        "Time(s)": 140
    },
    {
        "Altitude(m)": 606432.9477462071,
        "Argument of Periapsis(deg)": 0.0015628418869944607,
        "Eccentricity": 0.0,
        "Inclination(deg)": 60.0,
        "Latitude(deg)": 33.75023443948828,
        "Longitude(deg)": -28.164092175219643,
        "Mean Anomaly(deg)": -219.78930781807256,
        "RAAN(deg)": 274.9936992629039,
        "Satellite Name": "Test1 1218",
        "Satellite Number": 1218,
        "Semi-Major Axis(m)": 6980739.136638005,
        "Time(s)": 150
    },
    {
        "Altitude(m)": 606341.5844679719,
        "Argument of Periapsis(deg)": 0.0016670313461274247,
        "Eccentricity": 0.0,
        "Inclination(deg)": 60.0,
        "Latitude(deg)": 33.25171123434618,
        "Longitude(deg)": -27.76120580642244,
        "Mean Anomaly(deg)": -219.1692016726107,
        "RAAN(deg)": 274.99327921376414,
        "Satellite Name": "Test1 1218",
        "Satellite Number": 1218,
        "Semi-Major Axis(m)": 6980739.136638005,
        "Time(s)": 160
    },
    {
        "Altitude(m)": 606251.3481703404,
        "Argument of Periapsis(deg)": 0.0017712208052603888,
        "Eccentricity": 0.0,
        "Inclination(deg)": 60.0,
        "Latitude(deg)": 32.75157760153736,
        "Longitude(deg)": -27.363339458410476,
        "Mean Anomaly(deg)": -218.54909552714886,
        "RAAN(deg)": 274.99285916462435,
        "Satellite Name": "Test1 1218",
        "Satellite Number": 1218,
        "Semi-Major Axis(m)": 6980739.136638005,
        "Time(s)": 170
    },
    {
        "Altitude(m)": 606162.3006888176,
        "Argument of Periapsis(deg)": 0.001875410264393353,
        "Eccentricity": 0.0,
        "Inclination(deg)": 60.0,
        "Latitude(deg)": 32.24988045964498,
        "Longitude(deg)": -26.970358318658118,
        "Mean Anomaly(deg)": -217.92898938168705,
        "RAAN(deg)": 274.9924391154846,
        "Satellite Name": "Test1 1218",
        "Satellite Number": 1218,
        "Semi-Major Axis(m)": 6980739.136638005,
        "Time(s)": 180
    },
    {
        "Altitude(m)": 606074.5034786344,
        "Argument of Periapsis(deg)": 0.0019795997235263173,
        "Eccentricity": 0.0,
        "Inclination(deg)": 60.0,
        "Latitude(deg)": 31.746665411089847,
        "Longitude(deg)": -26.582130066134148,
        "Mean Anomaly(deg)": -217.3088832362252,
        "RAAN(deg)": 274.99201906634494,
        "Satellite Name": "Test1 1218",
        "Satellite Number": 1218,
        "Semi-Major Axis(m)": 6980739.136638005,
        "Time(s)": 190
    }
]